H1 CPF 01  gfz 2022 04 12 12  6022 terrasarx 
H2 0702601  6201 31698    2022 04 12 12 59 42 2022 04 17 00 00 42   120 1 1  0 0 0
H9
10 0 59683  72702.000000  0   -4513875.491   3484520.339  -3873229.068
10 0 59683  72822.000000  0   -3959611.256   3293520.387  -4582605.674
10 0 59683  72942.000000  0   -3340431.925   3034983.809  -5211732.055
10 0 59683  73062.000000  0   -2668316.579   2712431.817  -5749689.067
10 0 59683  73182.000000  0   -1956063.170   2330699.964  -6187165.717
10 0 59683  73302.000000  0   -1217041.685   1895861.988  -6516609.711
10 0 59683  73422.000000  0    -464944.144   1415130.635  -6732345.373
10 0 59683  73542.000000  0     286465.130    896737.532  -6830661.319
10 0 59683  73662.000000  0    1023594.742    349794.341  -6809867.542
10 0 59683  73782.000000  0    1733267.284   -215864.193  -6670322.756
10 0 59683  73902.000000  0    2402949.467   -789853.085  -6414427.418
10 0 59683  74022.000000  0    3020968.948  -1361422.648  -6046587.415
10 0 59683  74142.000000  0    3576715.689  -1919654.523  -5573145.741
10 0 59683  74262.000000  0    4060825.407  -2453666.259  -5002285.047
10 0 59683  74382.000000  0    4465342.054  -2952822.673  -4343896.919
10 0 59683  74502.000000  0    4783853.756  -3406947.572  -3609420.518
10 0 59683  74622.000000  0    5011601.946  -3806531.944  -2811653.194
10 0 59683  74742.000000  0    5145560.867  -4142935.340  -1964533.261
10 0 59683  74862.000000  0    5184483.388  -4408574.267  -1082898.266
10 0 59683  74982.000000  0    5128912.300  -4597093.908   -182223.274
10 0 59683  75102.000000  0    4981154.903  -4703518.232    721656.224
10 0 59683  75222.000000  0    4745221.486  -4724372.979   1612831.035
10 0 59683  75342.000000  0    4426728.760  -4657778.263   2475607.368
10 0 59683  75462.000000  0    4032771.624  -4503508.971   3294791.274
10 0 59683  75582.000000  0    3571766.302  -4263021.726   4055963.261
10 0 59683  75702.000000  0    3053267.940  -3939447.383   4745736.998
10 0 59683  75822.000000  0    2487768.716  -3537548.795   5351996.180
10 0 59683  75942.000000  0    1886481.825  -3063647.004   5864106.198
10 0 59683  76062.000000  0    1261114.857  -2525515.992   6273097.215
10 0 59683  76182.000000  0     623639.164  -1932250.190   6571814.957
10 0 59683  76302.000000  0     -13940.846  -1294107.420   6755039.542
10 0 59683  76422.000000  0    -639813.350   -622329.355   6819571.383
10 0 59683  76542.000000  0   -1242576.827     71057.656   6764283.261
10 0 59683  76662.000000  0   -1811446.982    773457.492   6590138.737
10 0 59683  76782.000000  0   -2336449.167   1471932.327   6300176.395
10 0 59683  76902.000000  0   -2808593.806   2153439.974   5899460.186
10 0 59683  77022.000000  0   -3220031.896   2805077.413   5394996.918
10 0 59683  77142.000000  0   -3564189.010   3414326.958   4795620.213
10 0 59683  77262.000000  0   -3835874.766   3969299.735   4111841.571
10 0 59683  77382.000000  0   -4031365.029   4458972.737   3355670.480
10 0 59683  77502.000000  0   -4148455.036   4873413.952   2540405.162
10 0 59683  77622.000000  0   -4186481.295   5203989.112   1680396.540
10 0 59683  77742.000000  0   -4146311.913   5443545.106    790791.702
10 0 59683  77862.000000  0   -4030306.643   5586566.232   -112738.672
10 0 59683  77982.000000  0   -3842246.243   5629299.586  -1014285.443
10 0 59683  78102.000000  0   -3587231.495   5569843.656  -1897991.915
10 0 59683  78222.000000  0   -3271555.356   5408198.080  -2748341.445
10 0 59683  78342.000000  0   -2902551.993   5146275.916  -3550435.418
10 0 59683  78462.000000  0   -2488428.529   4787876.114  -4290256.646
10 0 59683  78582.000000  0   -2038082.717   4338619.416  -4954912.143
10 0 59683  78702.000000  0   -1560912.101   3805851.002  -5532850.756
10 0 59683  78822.000000  0   -1066619.227   3198512.747  -6014056.039
10 0 59683  78942.000000  0    -565015.669   2526985.536  -6390210.475
10 0 59683  79062.000000  0     -65829.561   1802906.762  -6654827.240
10 0 59683  79182.000000  0     421478.597   1038967.867  -6803351.162
10 0 59683  79302.000000  0     887890.614    248694.168  -6833229.412
10 0 59683  79422.000000  0    1324993.906   -553790.432  -6743950.686
10 0 59683  79542.000000  0    1725129.104  -1354010.490  -6537051.424
10 0 59683  79662.000000  0    2081520.969  -2137392.912  -6216092.015
10 0 59683  79782.000000  0    2388392.045  -2889525.774  -5786602.737
10 0 59683  79902.000000  0    2641056.851  -3596420.543  -5256000.072
10 0 59683  80022.000000  0    2835995.597  -4244773.779  -4633468.763
10 0 59683  80142.000000  0    2970903.860  -4822218.686  -3929812.026
10 0 59683  80262.000000  0    3044718.912  -5317565.399  -3157275.273
10 0 59683  80382.000000  0    3057621.862  -5721027.038  -2329340.999
10 0 59683  80502.000000  0    3011014.616  -6024422.250  -1460496.773
10 0 59683  80622.000000  0    2907472.002  -6221350.462   -565981.448
10 0 59683  80742.000000  0    2750668.308  -6307334.328    338487.235
10 0 59683  80862.000000  0    2545280.526  -6279923.481   1236995.471
10 0 59683  80982.000000  0    2296871.401  -6138760.029   2113721.992
10 0 59683  81102.000000  0    2011753.734  -5885599.808   2953226.993
10 0 59683  81222.000000  0    1696840.452  -5524290.095   3740731.148
10 0 59683  81342.000000  0    1359484.038  -5060706.739   4462380.592
10 0 59683  81462.000000  0    1007310.403  -4502651.663   5105492.986
10 0 59683  81582.000000  0     648050.332  -3859713.796   5658781.644
10 0 59683  81702.000000  0     289371.971  -3143093.720   6112551.258
10 0 59683  81822.000000  0     -61280.267  -2365399.800   6458861.192
10 0 59683  81942.000000  0    -396837.638  -1540421.485   6691657.404
10 0 59683  82062.000000  0    -710747.301   -682882.702   6806872.920
10 0 59683  82182.000000  0    -997098.804    191822.419   6802495.533
10 0 59683  82302.000000  0   -1250734.691   1067906.253   6678600.687
10 0 59683  82422.000000  0   -1467342.951   1929471.999   6437349.908
10 0 59683  82542.000000  0   -1643530.506   2760801.429   6082955.663
10 0 59683  82662.000000  0   -1776876.775   3546642.255   5621612.125
10 0 59683  82782.000000  0   -1865965.782   4272489.986   5061392.765
10 0 59683  82902.000000  0   -1910397.237   4924860.993   4412116.060
10 0 59683  83022.000000  0   -1910775.615   5491550.571   3685178.082
10 0 59683  83142.000000  0   -1868677.415   5961870.195   2893355.235
10 0 59683  83262.000000  0   -1786597.841   6326857.947   2050579.516
10 0 59683  83382.000000  0   -1667876.808   6579458.326   1171690.448
10 0 59683  83502.000000  0   -1516605.567   6714665.467    272168.089
10 0 59683  83622.000000  0   -1337517.489   6729626.516   -632146.717
10 0 59683  83742.000000  0   -1135865.258   6623703.446  -1525341.117
10 0 59683  83862.000000  0    -917286.525   6398486.471  -2391721.694
10 0 59683  83982.000000  0    -687663.883   6057760.707  -3216096.412
10 0 59683  84102.000000  0    -452982.197   5607431.795  -3984042.933
10 0 59683  84222.000000  0    -219186.417   5055412.211  -4682160.824
10 0 59683  84342.000000  0       7956.595   4411469.980  -5298301.680
10 0 59683  84462.000000  0     222989.537   3687045.093  -5821773.877
10 0 59683  84582.000000  0     420886.144   2895036.681  -6243519.010
10 0 59683  84702.000000  0     597159.636   2049566.891  -6556257.048
10 0 59683  84822.000000  0     747957.137   1165727.748  -6754600.504
10 0 59683  84942.000000  0     870138.301    259313.692  -6835138.030
10 0 59683  85062.000000  0     961336.929   -653456.154  -6796486.763
10 0 59683  85182.000000  0    1020004.673  -1556222.219  -6639312.203
10 0 59683  85302.000000  0    1045436.592  -2432769.182  -6366316.759
10 0 59683  85422.000000  0    1037778.993  -3267309.710  -5982200.171
10 0 59683  85542.000000  0     998017.980  -4044766.685  -5493588.527
10 0 59683  85662.000000  0     927949.331  -4751045.576  -4908929.261
10 0 59683  85782.000000  0     830130.985  -5373292.670  -4238356.751
10 0 59683  85902.000000  0     707817.376  -5900136.727  -3493527.488
10 0 59683  86022.000000  0     564877.233  -6321906.917  -2687425.379
10 0 59683  86142.000000  0     405696.733  -6630822.469  -1834141.000
10 0 59683  86262.000000  0     235069.677  -6821149.611   -948626.362
10 0 59683  86382.000000  0      58076.907  -6889319.180    -46429.729
10 0 59684    102.000000  0    -120041.920  -6834002.050    856582.826
10 0 59684    222.000000  0    -294020.816  -6656141.046   1744513.835
10 0 59684    342.000000  0    -458701.082  -6358937.310   2601723.802
10 0 59684    462.000000  0    -609162.292  -5947789.977   3413116.640
10 0 59684    582.000000  0    -740846.624  -5430189.453   4164412.378
10 0 59684    702.000000  0    -849674.916  -4815572.427   4842401.295
10 0 59684    822.000000  0    -932150.483  -4115140.185   5435177.163
10 0 59684    942.000000  0    -985448.466  -3341645.123   5932345.475
10 0 59684   1062.000000  0   -1007489.213  -2509148.153   6325201.929
10 0 59684   1182.000000  0    -996993.296  -1632756.272   6606876.864
10 0 59684   1302.000000  0    -953518.285   -728346.087   6772449.299
10 0 59684   1422.000000  0    -877477.459    187725.579   6819028.556
10 0 59684   1542.000000  0    -770138.762   1098917.556   6745801.567
10 0 59684   1662.000000  0    -633603.263   1988802.600   6554046.388
10 0 59684   1782.000000  0    -470764.334   2841363.085   6247111.143
10 0 59684   1902.000000  0    -285248.443   3641279.550   5830359.338
10 0 59684   2022.000000  0     -81338.786   4374208.585   5311081.271
10 0 59684   2142.000000  0     136117.746   5027044.257   4698372.758
10 0 59684   2262.000000  0     361818.680   5588160.973   4002981.406
10 0 59684   2382.000000  0     590126.091   6047626.785   3237120.568
10 0 59684   2502.000000  0     815196.874   6397391.529   2414261.463
10 0 59684   2622.000000  0    1031122.336   6631440.785   1548890.160
10 0 59684   2742.000000  0    1232069.714   6745904.873    656247.208
99
